( MYCAD SAMPLE - contour )
G21
G90
G17
T3 M6
( 8 MM FINISHER )
S9000 M3
M8
( CONTOUR PASS 1 )
G0 X-40.000 Y-25.000 Z2.000
G1 Z-2.000 F180
G1 X32.000 Y-25.000 F700
G3 X40.000 Y-17.000 I0.000 J8.000
G1 X40.000 Y17.000
G3 X32.000 Y25.000 I-8.000 J0.000
G1 X-32.000 Y25.000
G3 X-40.000 Y17.000 I0.000 J-8.000
G1 X-40.000 Y-17.000
G3 X-32.000 Y-25.000 I8.000 J0.000
G0 Z10.000
( CONTOUR PASS 2 )
G0 X-40.000 Y-25.000 Z2.000
G1 Z-4.000 F180
G1 X32.000 Y-25.000 F700
G3 X40.000 Y-17.000 I0.000 J8.000
G1 X40.000 Y17.000
G3 X32.000 Y25.000 I-8.000 J0.000
G1 X-32.000 Y25.000
G3 X-40.000 Y17.000 I0.000 J-8.000
G1 X-40.000 Y-17.000
G3 X-32.000 Y-25.000 I8.000 J0.000
G0 Z10.000
( CONTOUR PASS 3 )
G0 X-40.000 Y-25.000 Z2.000
G1 Z-6.000 F180
G1 X32.000 Y-25.000 F700
G3 X40.000 Y-17.000 I0.000 J8.000
G1 X40.000 Y17.000
G3 X32.000 Y25.000 I-8.000 J0.000
G1 X-32.000 Y25.000
G3 X-40.000 Y17.000 I0.000 J-8.000
G1 X-40.000 Y-17.000
G3 X-32.000 Y-25.000 I8.000 J0.000
G0 Z10.000
M9
M5
M30
